[{"OBJECT_NAME":"STARLINK-4325","OBJECT_ID":"2022-077AB","EPOCH":"2026-01-09T11:41:09.046464","MEAN_MOTION":15.05644312,"ECCENTRICITY":0.00016877,"INCLINATION":97.6032,"RA_OF_ASC_NODE":192.8673,"ARG_OF_PERICENTER":79.2121,"MEAN_ANOMALY":280.9295,"EPHEMERIS_TYPE":0,"CLASSIFICATION_TYPE":"U","NORAD_CAT_ID":53068,"ELEMENT_SET_NO":999,"REV_AT_EPOCH":19207,"BSTAR":-1.1213879e-5,"MEAN_MOTION_DOT":-2.23e-6,"MEAN_MOTION_DDOT":0},{"OBJECT_NAME":"STARLINK-4323","OBJECT_ID":"2022-077AC","EPOCH":"2026-01-09T11:33:15.475104","MEAN_MOTION":15.01257666,"ECCENTRICITY":0.00010716,"INCLINATION":97.6015,"RA_OF_ASC_NODE":192.2447,"ARG_OF_PERICENTER":90.6011,"MEAN_ANOMALY":269.5336,"EPHEMERIS_TYPE":0,"CLASSIFICATION_TYPE":"U","NORAD_CAT_ID":53069,"ELEMENT_SET_NO":999,"REV_AT_EPOCH":19203,"BSTAR":-1.6339002e-5,"MEAN_MOTION_DOT":-2.68e-6,"MEAN_MOTION_DDOT":0},{"OBJECT_NAME":"STARLINK-4342","OBJECT_ID":"2022-077AD","EPOCH":"2026-01-09T10:45:20.122848","MEAN_MOTION":15.05645469,"ECCENTRICITY":0.0001425,"INCLINATION":97.6031,"RA_OF_ASC_NODE":192.9146,"ARG_OF_PERICENTER":79.9193,"MEAN_ANOMALY":280.2195,"EPHEMERIS_TYPE":0,"CLASSIFICATION_TYPE":"U","NORAD_CAT_ID":53070,"ELEMENT_SET_NO":999,"REV_AT_EPOCH":19207,"BSTAR":3.0675322e-5,"MEAN_MOTION_DOT":3.82e-6,"MEAN_MOTION_DDOT":0},{"OBJECT_NAME":"STARLINK-4328","OBJECT_ID":"2022-077AE","EPOCH":"2026-01-09T10:41:20.750784","MEAN_MOTION":15.05646563,"ECCENTRICITY":0.0001478,"INCLINATION":97.6032,"RA_OF_ASC_NODE":192.9017,"ARG_OF_PERICENTER":89.1227,"MEAN_ANOMALY":271.0169,"EPHEMERIS_TYPE":0,"CLASSIFICATION_TYPE":"U","NORAD_CAT_ID":53071,"ELEMENT_SET_NO":999,"REV_AT_EPOCH":19207,"BSTAR":1.9069042e-5,"MEAN_MOTION_DOT":2.14e-6,"MEAN_MOTION_DDOT":0},{"OBJECT_NAME":"STARLINK-4344","OBJECT_ID":"2022-077AF","EPOCH":"2026-01-09T11:57:07.461792","MEAN_MOTION":15.05629284,"ECCENTRICITY":0.0002345,"INCLINATION":97.6024,"RA_OF_ASC_NODE":192.8422,"ARG_OF_PERICENTER":86.4971,"MEAN_ANOMALY":273.6523,"EPHEMERIS_TYPE":0,"CLASSIFICATION_TYPE":"U","NORAD_CAT_ID":53072,"ELEMENT_SET_NO":999,"REV_AT_EPOCH":19207,"BSTAR":-0.00014271604,"MEAN_MOTION_DOT":-2.118e-5,"MEAN_MOTION_DDOT":0},{"OBJECT_NAME":"STARLINK-4346","OBJECT_ID":"2022-077AG","EPOCH":"2026-01-09T12:33:43.353216","MEAN_MOTION":15.18969878,"ECCENTRICITY":0.00050673,"INCLINATION":97.6348,"RA_OF_ASC_NODE":196.9311,"ARG_OF_PERICENTER":81.9846,"MEAN_ANOMALY":278.1963,"EPHEMERIS_TYPE":0,"CLASSIFICATION_TYPE":"U","NORAD_CAT_ID":53073,"ELEMENT_SET_NO":999,"REV_AT_EPOCH":19231,"BSTAR":0.00034336744,"MEAN_MOTION_DOT":7.112e-5,"MEAN_MOTION_DDOT":0},{"OBJECT_NAME":"STARLINK-4310","OBJECT_ID":"2022-077AH","EPOCH":"2026-01-09T11:53:06.982080","MEAN_MOTION":15.05644542,"ECCENTRICITY":0.0002053,"INCLINATION":97.6026,"RA_OF_ASC_NODE":192.8378,"ARG_OF_PERICENTER":87.1383,"MEAN_ANOMALY":273.0079,"EPHEMERIS_TYPE":0,"CLASSIFICATION_TYPE":"U","NORAD_CAT_ID":53074,"ELEMENT_SET_NO":999,"REV_AT_EPOCH":19207,"BSTAR":8.8381975e-5,"MEAN_MOTION_DOT":1.215e-5,"MEAN_MOTION_DDOT":0},{"OBJECT_NAME":"STARLINK-4348","OBJECT_ID":"2022-077AJ","EPOCH":"2026-01-09T11:27:55.414944","MEAN_MOTION":15.01260094,"ECCENTRICITY":0.0001239,"INCLINATION":97.6014,"RA_OF_ASC_NODE":192.2276,"ARG_OF_PERICENTER":184.2775,"MEAN_ANOMALY":175.8439,"EPHEMERIS_TYPE":0,"CLASSIFICATION_TYPE":"U","NORAD_CAT_ID":53075,"ELEMENT_SET_NO":999,"REV_AT_EPOCH":19203,"BSTAR":1.0570754e-5,"MEAN_MOTION_DOT":7.8e-7,"MEAN_MOTION_DDOT":0},{"OBJECT_NAME":"STARLINK-4347","OBJECT_ID":"2022-077AK","EPOCH":"2026-01-09T11:25:36.433632","MEAN_MOTION":15.01261457,"ECCENTRICITY":6.072e-5,"INCLINATION":97.6013,"RA_OF_ASC_NODE":192.2418,"ARG_OF_PERICENTER":192.8565,"MEAN_ANOMALY":167.2644,"EPHEMERIS_TYPE":0,"CLASSIFICATION_TYPE":"U","NORAD_CAT_ID":53076,"ELEMENT_SET_NO":999,"REV_AT_EPOCH":19203,"BSTAR":1.692457e-6,"MEAN_MOTION_DOT":-3.6e-7,"MEAN_MOTION_DDOT":0},{"OBJECT_NAME":"STARLINK-4322","OBJECT_ID":"2022-077AM","EPOCH":"2026-01-09T11:22:35.302080","MEAN_MOTION":15.01259627,"ECCENTRICITY":0.00014263,"INCLINATION":97.6013,"RA_OF_ASC_NODE":192.2355,"ARG_OF_PERICENTER":188.114,"MEAN_ANOMALY":172.0061,"EPHEMERIS_TYPE":0,"CLASSIFICATION_TYPE":"U","NORAD_CAT_ID":53078,"ELEMENT_SET_NO":999,"REV_AT_EPOCH":19203,"BSTAR":-1.4078976e-5,"MEAN_MOTION_DOT":-2.39e-6,"MEAN_MOTION_DDOT":0},{"OBJECT_NAME":"STARLINK-4327","OBJECT_ID":"2022-077AN","EPOCH":"2026-01-09T11:05:15.678528","MEAN_MOTION":15.05652018,"ECCENTRICITY":0.00015956,"INCLINATION":97.603,"RA_OF_ASC_NODE":192.8555,"ARG_OF_PERICENTER":83.5749,"MEAN_ANOMALY":276.566,"EPHEMERIS_TYPE":0,"CLASSIFICATION_TYPE":"U","NORAD_CAT_ID":53079,"ELEMENT_SET_NO":999,"REV_AT_EPOCH":19207,"BSTAR":5.5632659e-5,"MEAN_MOTION_DOT":7.42e-6,"MEAN_MOTION_DDOT":0},{"OBJECT_NAME":"STARLINK-4330","OBJECT_ID":"2022-077AP","EPOCH":"2026-01-09T11:29:11.214528","MEAN_MOTION":15.05642452,"ECCENTRICITY":0.00020771,"INCLINATION":97.603,"RA_OF_ASC_NODE":192.8425,"ARG_OF_PERICENTER":76.4903,"MEAN_ANOMALY":283.6555,"EPHEMERIS_TYPE":0,"CLASSIFICATION_TYPE":"U","NORAD_CAT_ID":53080,"ELEMENT_SET_NO":999,"REV_AT_EPOCH":19207,"BSTAR":1.6854233e-5,"MEAN_MOTION_DOT":1.82e-6,"MEAN_MOTION_DDOT":0},{"OBJECT_NAME":"STARLINK-4326","OBJECT_ID":"2022-077AQ","EPOCH":"2026-01-09T11:20:16.871136","MEAN_MOTION":15.01258435,"ECCENTRICITY":0.000227,"INCLINATION":97.6012,"RA_OF_ASC_NODE":192.2173,"ARG_OF_PERICENTER":183.9794,"MEAN_ANOMALY":176.1413,"EPHEMERIS_TYPE":0,"CLASSIFICATION_TYPE":"U","NORAD_CAT_ID":53081,"ELEMENT_SET_NO":999,"REV_AT_EPOCH":19203,"BSTAR":-2.7622458e-5,"MEAN_MOTION_DOT":-4.13e-6,"MEAN_MOTION_DDOT":0},{"OBJECT_NAME":"STARLINK-4321","OBJECT_ID":"2022-077AR","EPOCH":"2026-01-09T11:11:57.229440","MEAN_MOTION":15.01253224,"ECCENTRICITY":0.00026533,"INCLINATION":97.6026,"RA_OF_ASC_NODE":192.2289,"ARG_OF_PERICENTER":141.584,"MEAN_ANOMALY":218.5574,"EPHEMERIS_TYPE":0,"CLASSIFICATION_TYPE":"U","NORAD_CAT_ID":53082,"ELEMENT_SET_NO":999,"REV_AT_EPOCH":19203,"BSTAR":-4.5528004e-5,"MEAN_MOTION_DOT":-6.43e-6,"MEAN_MOTION_DDOT":0},{"OBJECT_NAME":"STARLINK-4251","OBJECT_ID":"2022-077AS","EPOCH":"2026-01-09T11:21:12.635424","MEAN_MOTION":15.0564668,"ECCENTRICITY":0.00016112,"INCLINATION":97.6029,"RA_OF_ASC_NODE":192.8071,"ARG_OF_PERICENTER":83.7194,"MEAN_ANOMALY":276.4217,"EPHEMERIS_TYPE":0,"CLASSIFICATION_TYPE":"U","NORAD_CAT_ID":53083,"ELEMENT_SET_NO":999,"REV_AT_EPOCH":19207,"BSTAR":1.3186439e-5,"MEAN_MOTION_DOT":1.29e-6,"MEAN_MOTION_DDOT":0},{"OBJECT_NAME":"STARLINK-4319","OBJECT_ID":"2022-077AT","EPOCH":"2026-01-09T11:17:13.185600","MEAN_MOTION":15.05656306,"ECCENTRICITY":0.00013722,"INCLINATION":97.6034,"RA_OF_ASC_NODE":192.8357,"ARG_OF_PERICENTER":63.2173,"MEAN_ANOMALY":296.9194,"EPHEMERIS_TYPE":0,"CLASSIFICATION_TYPE":"U","NORAD_CAT_ID":53084,"ELEMENT_SET_NO":999,"REV_AT_EPOCH":19207,"BSTAR":-3.2903083e-5,"MEAN_MOTION_DOT":-5.36e-6,"MEAN_MOTION_DDOT":0}]
