STARLINK-4325           
1 53068U 22077AB  26009.48691026 -.00000223  00000+0 -11214-4 0  9994
2 53068  97.6032 192.8673 0001687  79.2121 280.9295 15.05644312192076
STARLINK-4323           
1 53069U 22077AC  26009.48142911 -.00000268  00000+0 -16339-4 0  9991
2 53069  97.6015 192.2447 0001071  90.6011 269.5336 15.01257666192036
STARLINK-4342           
1 53070U 22077AD  26009.44814957  .00000382  00000+0  30675-4 0  9999
2 53070  97.6031 192.9146 0001425  79.9193 280.2195 15.05645469192076
STARLINK-4328           
1 53071U 22077AE  26009.44537906  .00000214  00000+0  19069-4 0  9994
2 53071  97.6032 192.9017 0001478  89.1227 271.0169 15.05646563192079
STARLINK-4344           
1 53072U 22077AF  26009.49800303 -.00002118  00000+0 -14272-3 0  9991
2 53072  97.6024 192.8422 0002345  86.4971 273.6523 15.05629284192073
STARLINK-4346           
1 53073U 22077AG  26009.52341844  .00007112  00000+0  34337-3 0  9997
2 53073  97.6348 196.9311 0005067  81.9846 278.1963 15.18969878192315
STARLINK-4310           
1 53074U 22077AH  26009.49521970  .00001215  00000+0  88382-4 0  9992
2 53074  97.6026 192.8378 0002053  87.1383 273.0079 15.05644542192072
STARLINK-4348           
1 53075U 22077AJ  26009.47772471  .00000078  00000+0  10571-4 0  9996
2 53075  97.6014 192.2276 0001239 184.2775 175.8439 15.01260094192037
STARLINK-4347           
1 53076U 22077AK  26009.47611613 -.00000036  00000+0  16925-5 0  9992
2 53076  97.6013 192.2418 0000607 192.8565 167.2644 15.01261457192032
STARLINK-4322           
1 53078U 22077AM  26009.47401970 -.00000239  00000+0 -14079-4 0  9990
2 53078  97.6013 192.2355 0001426 188.1140 172.0061 15.01259627192034
STARLINK-4327           
1 53079U 22077AN  26009.46198702  .00000742  00000+0  55633-4 0  9994
2 53079  97.6030 192.8555 0001595  83.5749 276.5660 15.05652018192076
STARLINK-4330           
1 53080U 22077AP  26009.47860202  .00000182  00000+0  16854-4 0  9998
2 53080  97.6030 192.8425 0002077  76.4903 283.6555 15.05642452192076
STARLINK-4326           
1 53081U 22077AQ  26009.47241749 -.00000413  00000+0 -27622-4 0  9992
2 53081  97.6012 192.2173 0002270 183.9794 176.1413 15.01258435192033
STARLINK-4321           
1 53082U 22077AR  26009.46663460 -.00000643  00000+0 -45528-4 0  9990
2 53082  97.6026 192.2289 0002653 141.5840 218.5574 15.01253224192034
STARLINK-4251           
1 53083U 22077AS  26009.47306291  .00000129  00000+0  13186-4 0  9990
2 53083  97.6029 192.8071 0001611  83.7194 276.4217 15.05646680192072
STARLINK-4319           
1 53084U 22077AT  26009.47029150 -.00000536  00000+0 -32903-4 0  9999
2 53084  97.6034 192.8357 0001372  63.2173 296.9194 15.05656306192077
